IRIDIUM 166             
1 43570U 18061B   24083.91035111  .00000681  00000+0  23598-3 0  9997
2 43570  86.3992  37.4325 0002524  86.1635 273.9849 14.34218991296544
IRIDIUM 158             
1 43571U 18061C   24083.87863489  .00000676  00000+0  23444-3 0  9994
2 43571  86.3993  37.4553 0002379  83.6304 276.5163 14.34219152296517
IRIDIUM 165             
1 43572U 18061D   24083.90400939  .00000022  00000+0  72937-6 0  9995
2 43572  86.3995  37.4752 0002334  81.7344 278.4116 14.34217818296533
IRIDIUM 155             
1 43573U 18061E   24083.93571407  .00000634  00000+0  21943-3 0  9995
2 43573  86.3988  37.3713 0002347  89.8128 270.3337 14.34221725296500
IRIDIUM 154             
1 43574U 18061F   24083.91669380  .00000025  00000+0  17083-5 0  9998
2 43574  86.3992  37.4726 0002045  86.0254 274.1176 14.34217854296551
IRIDIUM 163             
1 43575U 18061G   24084.38603460  .00000080  00000+0  21343-4 0  9992
2 43575  86.3993  37.2178 0002160  90.7369 269.4075 14.34215951296594
IRIDIUM 156             
1 43576U 18061H   24084.36067521  .00000214  00000+0  69284-4 0  9998
2 43576  86.3992  37.2345 0002404  83.9672 276.1797 14.34219097296571
IRIDIUM 164             
1 43577U 18061J   24083.92303363  .00000653  00000+0  22603-3 0  9997
2 43577  86.3994  37.4447 0002221  78.7701 281.3744 14.34217476296569
